0 EXPLORER 38 DEB
1 28608U 68055M   13283.37692017 -.00000010  00000-0  00000+0 0  1960
2 28608 120.8370 251.7630 0023134 269.4925 090.2795 06.42272968 61859
0 EXPLORER 38 DEB
1 28608U 68055M   13289.29300832 -.00000010  00000-0  00000+0 0  1979
2 28608 120.8498 254.8622 0023750 269.2280 090.5868 06.42272931 62238
0 EXPLORER 38 DEB
1 28608U 68055M   13294.74201520 -.00000010  00000-0  00000+0 0  1980
2 28608 120.8314 257.7316 0023804 269.3211 090.5158 06.42274254 62582
